[{"OBJECT_NAME":"XINGYUN-2 01","OBJECT_ID":"2020-028A","EPOCH":"2026-03-09T23:27:57.512736","MEAN_MOTION":15.11323975,"ECCENTRICITY":0.00090563,"INCLINATION":97.4853,"RA_OF_ASC_NODE":63.3977,"ARG_OF_PERICENTER":174.572,"MEAN_ANOMALY":185.561,"EPHEMERIS_TYPE":0,"CLASSIFICATION_TYPE":"U","NORAD_CAT_ID":45602,"ELEMENT_SET_NO":999,"REV_AT_EPOCH":31985,"BSTAR":0.000253969,"MEAN_MOTION_DOT":4.22e-5,"MEAN_MOTION_DDOT":0},{"OBJECT_NAME":"STARLINK-5159","OBJECT_ID":"2022-125L","EPOCH":"2026-03-09T15:46:17.865408","MEAN_MOTION":15.08823838,"ECCENTRICITY":0.00012082,"INCLINATION":53.2175,"RA_OF_ASC_NODE":203.8701,"ARG_OF_PERICENTER":88.2022,"MEAN_ANOMALY":271.9108,"EPHEMERIS_TYPE":0,"CLASSIFICATION_TYPE":"U","NORAD_CAT_ID":53974,"ELEMENT_SET_NO":999,"REV_AT_EPOCH":18960,"BSTAR":0.00021710418,"MEAN_MOTION_DOT":3.168e-5,"MEAN_MOTION_DDOT":0}]
